ONEWEB-0661             
1 55821U 23029AB  23224.25001157 -.00636384  00000+0 -86606+0 0  9997
2 55821  87.5030 137.4021 0000123 264.7019 314.8052 13.62026762 23361
ONEWEB-0662             
1 55822U 23029AC  23224.25001157 -.00700677  00000+0 -88247+0 0  9998
2 55822  87.5173 137.4459 0001099 218.5449  99.9593 13.67105070 23425
ONEWEB-0663             
1 55823U 23029AD  23224.58334491 -.00678419  00000+0 -10120+0 0  9998
2 55823  86.6236 130.2090 0000912  85.2731 314.2631 14.77550950 23928
ONEWEB-0664             
1 55824U 23029AE  23224.58334491 -.00701118  00000+0 -10587+0 0  9999
2 55824  86.6261 130.1759 0001685  56.9772 255.7782 14.77116803 23927
ONEWEB-0665             
1 55825U 23029AF  23224.25001157 -.00682150  00000+0 -90587+0 0  9996
2 55825  87.5113 137.3725 0002256 116.2601 272.5498 13.63753753 23388
ONEWEB-0666             
1 55826U 23029AG  23224.25001157 -.00742917  00000+0 -11025+0 0  9995
2 55826  86.6243 130.3660 0002233  85.7702 308.3064 14.78009952 23874
ONEWEB-0667             
1 55827U 23029AH  23224.58334491 -.00695816  00000+0 -10823+0 0  9992
2 55827  86.6363 130.2096 0002061  75.2213 300.2917 14.75832480 23921
ONEWEB-0669             
1 55828U 23029AJ  23224.25001157 -.00714136  00000+0 -10677+0 0  9991
2 55828  86.6242 130.3142 0001664 108.3590 313.9062 14.77588055 23879
